{"type": "FeatureCollection", "features": [ {"type": "Feature", "properties": {"norad_id": 30035, "name": "FENGYUN 1C DEB", "group": "fengyun-1c-debris", "lat": 69.35440006803353, "lon": 123.65358052330893, "alt_km": 761.755632524465, "timestamp": "2025-12-27T23:26:37.636018+00:00", "meta": {"OBJECT_NAME": "FENGYUN 1C DEB", "OBJECT_ID": "1999-025NL", "EPOCH": "2025-12-26T17:07:38.955648", "MEAN_MOTION": 14.36982364, "ECCENTRICITY": 0.0115124, "INCLINATION": 99.2717, "RA_OF_ASC_NODE": 276.6004, "ARG_OF_PERICENTER": 21.4745, "MEAN_ANOMALY": 34.7758, "EPHEMERIS_TYPE": 0, "CLASSIFICATION_TYPE": "U", "NORAD_CAT_ID": 30035, "ELEMENT_SET_NO": 999, "REV_AT_EPOCH": 99324, "BSTAR": 0.00010059574, "MEAN_MOTION_DOT": 2.68e-06, "MEAN_MOTION_DDOT": 0}, "tle": {"line1": "1 30035U 99025NL  25360.71364532  .00000268  00000+0  10060-3 0  9998", "line2": "2 30035  99.2717 276.6004 0115124  21.4745  34.7758 14.36982364993247"}}, "geometry": {"type": "Point", "coordinates": [123.65358052330893, 69.35440006803353]}}, {"type": "Feature", "properties": {"norad_id": 30036, "name": "FENGYUN 1C DEB", "group": "fengyun-1c-debris", "lat": -17.30246373167081, "lon": 31.269887611134198, "alt_km": 878.5072124973631, "timestamp": "2025-12-27T23:26:37.636027+00:00", "meta": {"OBJECT_NAME": "FENGYUN 1C DEB", "OBJECT_ID": "1999-025NM", "EPOCH": "2025-12-27T00:33:05.331168", "MEAN_MOTION": 14.46229779, "ECCENTRICITY": 0.01905955, "INCLINATION": 98.252, "RA_OF_ASC_NODE": 27.7497, "ARG_OF_PERICENTER": 164.1274, "MEAN_ANOMALY": 255.324, "EPHEMERIS_TYPE": 0, "CLASSIFICATION_TYPE": "U", "NORAD_CAT_ID": 30036, "ELEMENT_SET_NO": 999, "REV_AT_EPOCH": 99383, "BSTAR": 0.00041574793, "MEAN_MOTION_DOT": 1.815e-05, "MEAN_MOTION_DDOT": 0}, "tle": {"line1": "1 30036U 99025NM  25361.02297837  .00001815  00000+0  41575-3 0  9991", "line2": "2 30036  98.2520  27.7497 0190595 164.1274 255.3240 14.46229779993834"}}, "geometry": {"type": "Point", "coordinates": [31.269887611134198, -17.30246373167081]}}, {"type": "Feature", "properties": {"norad_id": 30037, "name": "FENGYUN 1C DEB", "group": "fengyun-1c-debris", "lat": 74.86486805755393, "lon": -55.80633992251193, "alt_km": 721.3148425540139, "timestamp": "2025-12-27T23:26:37.636038+00:00", "meta": {"OBJECT_NAME": "FENGYUN 1C DEB", "OBJECT_ID": "1999-025NN", "EPOCH": "2025-12-27T10:23:44.769120", "MEAN_MOTION": 14.34141703, "ECCENTRICITY": 0.0173716, "INCLINATION": 98.3852, "RA_OF_ASC_NODE": 336.7129, "ARG_OF_PERICENTER": 11.5235, "MEAN_ANOMALY": 138.74, "EPHEMERIS_TYPE": 0, "CLASSIFICATION_TYPE": "U", "NORAD_CAT_ID": 30037, "ELEMENT_SET_NO": 999, "REV_AT_EPOCH": 98998, "BSTAR": 0.00030983, "MEAN_MOTION_DOT": 9.8e-06, "MEAN_MOTION_DDOT": 0}, "tle": {"line1": "1 30037U 99025NN  25361.43315705  .00000980  00000+0  30983-3 0  9995", "line2": "2 30037  98.3852 336.7129 0173716  11.5235 138.7400 14.34141703989987"}}, "geometry": {"type": "Point", "coordinates": [-55.80633992251193, 74.86486805755393]}}, {"type": "Feature", "properties": {"norad_id": 30038, "name": "FENGYUN 1C DEB", "group": "fengyun-1c-debris", "lat": 28.538664586319374, "lon": -15.333238108449496, "alt_km": 596.135338664164, "timestamp": "2025-12-27T23:26:37.636048+00:00", "meta": {"OBJECT_NAME": "FENGYUN 1C DEB", "OBJECT_ID": "1999-025NP", "EPOCH": "2025-12-27T10:39:10.537344", "MEAN_MOTION": 14.393313, "ECCENTRICITY": 0.0257813, "INCLINATION": 98.3698, "RA_OF_ASC_NODE": 348.7381, "ARG_OF_PERICENTER": 58.7961, "MEAN_ANOMALY": 91.6101, "EPHEMERIS_TYPE": 0, "CLASSIFICATION_TYPE": "U", "NORAD_CAT_ID": 30038, "ELEMENT_SET_NO": 999, "REV_AT_EPOCH": 99102, "BSTAR": 0.00036572, "MEAN_MOTION_DOT": 1.628e-05, "MEAN_MOTION_DDOT": 0}, "tle": {"line1": "1 30038U 99025NP  25361.44387196  .00001628  00000+0  36572-3 0  9990", "line2": "2 30038  98.3698 348.7381 0257813  58.7961  91.6101 14.39331300991021"}}, "geometry": {"type": "Point", "coordinates": [-15.333238108449496, 28.538664586319374]}}, {"type": "Feature", "properties": {"norad_id": 30040, "name": "FENGYUN 1C DEB", "group": "fengyun-1c-debris", "lat": 40.55284043144961, "lon": 10.585843788007564, "alt_km": 780.6125408475991, "timestamp": "2025-12-27T23:26:37.636059+00:00", "meta": {"OBJECT_NAME": "FENGYUN 1C DEB", "OBJECT_ID": "1999-025NR", "EPOCH": "2025-12-27T00:09:18.112032", "MEAN_MOTION": 14.37254039, "ECCENTRICITY": 0.00323177, "INCLINATION": 98.2335, "RA_OF_ASC_NODE": 16.774, "ARG_OF_PERICENTER": 269.1252, "MEAN_ANOMALY": 153.8773, "EPHEMERIS_TYPE": 0, "CLASSIFICATION_TYPE": "U", "NORAD_CAT_ID": 30040, "ELEMENT_SET_NO": 999, "REV_AT_EPOCH": 98133, "BSTAR": 0.0019363478, "MEAN_MOTION_DOT": 5.766e-05, "MEAN_MOTION_DDOT": 0}, "tle": {"line1": "1 30040U 99025NR  25361.00645963  .00005766  00000+0  19363-2 0  9999", "line2": "2 30040  98.2335  16.7740 0032317 269.1252 153.8773 14.37254039981333"}}, "geometry": {"type": "Point", "coordinates": [10.585843788007564, 40.55284043144961]}}, {"type": "Feature", "properties": {"norad_id": 30041, "name": "FENGYUN 1C DEB", "group": "fengyun-1c-debris", "lat": 67.23376994468002, "lon": -47.223674719160975, "alt_km": 830.6786597430828, "timestamp": "2025-12-27T23:26:37.636069+00:00", "meta": {"OBJECT_NAME": "FENGYUN 1C DEB", "OBJECT_ID": "1999-025NS", "EPOCH": "2025-12-27T06:13:23.082816", "MEAN_MOTION": 14.13211563, "ECCENTRICITY": 0.0035309, "INCLINATION": 99.4669, "RA_OF_ASC_NODE": 108.5905, "ARG_OF_PERICENTER": 177.1215, "MEAN_ANOMALY": 245.5218, "EPHEMERIS_TYPE": 0, "CLASSIFICATION_TYPE": "U", "NORAD_CAT_ID": 30041, "ELEMENT_SET_NO": 999, "REV_AT_EPOCH": 97492, "BSTAR": 0.00053101, "MEAN_MOTION_DOT": 9.51e-06, "MEAN_MOTION_DDOT": 0}, "tle": {"line1": "1 30041U 99025NS  25361.25929494  .00000951  00000+0  53101-3 0  9991", "line2": "2 30041  99.4669 108.5905 0035309 177.1215 245.5218 14.13211563974920"}}, "geometry": {"type": "Point", "coordinates": [-47.223674719160975, 67.23376994468002]}}, {"type": "Feature", "properties": {"norad_id": 30043, "name": "FENGYUN 1C DEB", "group": "fengyun-1c-debris", "lat": -29.523747098570894, "lon": 104.5965716394365, "alt_km": 905.3492225445725, "timestamp": "2025-12-27T23:26:37.636079+00:00", "meta": {"OBJECT_NAME": "FENGYUN 1C DEB", "OBJECT_ID": "1999-025NU", "EPOCH": "2025-12-27T05:01:51.365856", "MEAN_MOTION": 14.23645652, "ECCENTRICITY": 0.0283371, "INCLINATION": 98.6264, "RA_OF_ASC_NODE": 98.9113, "ARG_OF_PERICENTER": 88.9981, "MEAN_ANOMALY": 274.3648, "EPHEMERIS_TYPE": 0, "CLASSIFICATION_TYPE": "U", "NORAD_CAT_ID": 30043, "ELEMENT_SET_NO": 999, "REV_AT_EPOCH": 97551, "BSTAR": 0.0007286, "MEAN_MOTION_DOT": 2.47e-05, "MEAN_MOTION_DDOT": 0}, "tle": {"line1": "1 30043U 99025NU  25361.20962229  .00002470  00000+0  72860-3 0  9992", "line2": "2 30043  98.6264  98.9113 0283371  88.9981 274.3648 14.23645652975514"}}, "geometry": {"type": "Point", "coordinates": [104.5965716394365, -29.523747098570894]}}, {"type": "Feature", "properties": {"norad_id": 30044, "name": "FENGYUN 1C DEB", "group": "fengyun-1c-debris", "lat": -79.57898397309172, "lon": 50.16760445985027, "alt_km": 775.9623968170945, "timestamp": "2025-12-27T23:26:37.636089+00:00", "meta": {"OBJECT_NAME": "FENGYUN 1C DEB", "OBJECT_ID": "1999-025NV", "EPOCH": "2025-12-27T10:39:09.021024", "MEAN_MOTION": 14.50844307, "ECCENTRICITY": 0.0080523, "INCLINATION": 98.2117, "RA_OF_ASC_NODE": 281.3848, "ARG_OF_PERICENTER": 121.7703, "MEAN_ANOMALY": 239.1368, "EPHEMERIS_TYPE": 0, "CLASSIFICATION_TYPE": "U", "NORAD_CAT_ID": 30044, "ELEMENT_SET_NO": 999, "REV_AT_EPOCH": 98252, "BSTAR": 0.0018488, "MEAN_MOTION_DOT": 7.561e-05, "MEAN_MOTION_DDOT": 0}, "tle": {"line1": "1 30044U 99025NV  25361.44385441  .00007561  00000+0  18488-2 0  9995", "line2": "2 30044  98.2117 281.3848 0080523 121.7703 239.1368 14.50844307982528"}}, "geometry": {"type": "Point", "coordinates": [50.16760445985027, -79.57898397309172]}}, {"type": "Feature", "properties": {"norad_id": 30045, "name": "FENGYUN 1C DEB", "group": "fengyun-1c-debris", "lat": -80.20417995406197, "lon": 107.6188878486094, "alt_km": 888.5522465551267, "timestamp": "2025-12-27T23:26:37.636099+00:00", "meta": {"OBJECT_NAME": "FENGYUN 1C DEB", "OBJECT_ID": "1999-025NW", "EPOCH": "2025-12-27T02:09:11.636064", "MEAN_MOTION": 14.21726677, "ECCENTRICITY": 0.00935947, "INCLINATION": 99.1788, "RA_OF_ASC_NODE": 37.2277, "ARG_OF_PERICENTER": 72.5941, "MEAN_ANOMALY": 343.3725, "EPHEMERIS_TYPE": 0, "CLASSIFICATION_TYPE": "U", "NORAD_CAT_ID": 30045, "ELEMENT_SET_NO": 999, "REV_AT_EPOCH": 96892, "BSTAR": 0.0021605689, "MEAN_MOTION_DOT": 4.921e-05, "MEAN_MOTION_DDOT": 0}, "tle": {"line1": "1 30045U 99025NW  25361.08971801  .00004921  00000+0  21606-2 0  9990", "line2": "2 30045  99.1788  37.2277 0093594  72.5941 343.3725 14.21726677968926"}}, "geometry": {"type": "Point", "coordinates": [107.6188878486094, -80.20417995406197]}}, {"type": "Feature", "properties": {"norad_id": 30047, "name": "FENGYUN 1C DEB", "group": "fengyun-1c-debris", "lat": 23.748996119225946, "lon": -15.491248391343852, "alt_km": 966.381766941462, "timestamp": "2025-12-27T23:26:37.636109+00:00", "meta": {"OBJECT_NAME": "FENGYUN 1C DEB", "OBJECT_ID": "1999-025NY", "EPOCH": "2025-12-27T09:03:38.312064", "MEAN_MOTION": 13.94382277, "ECCENTRICITY": 0.0125825, "INCLINATION": 99.9199, "RA_OF_ASC_NODE": 159.4496, "ARG_OF_PERICENTER": 283.7865, "MEAN_ANOMALY": 106.3965, "EPHEMERIS_TYPE": 0, "CLASSIFICATION_TYPE": "U", "NORAD_CAT_ID": 30047, "ELEMENT_SET_NO": 999, "REV_AT_EPOCH": 96120, "BSTAR": 0.00087122, "MEAN_MOTION_DOT": 1.187e-05, "MEAN_MOTION_DDOT": 0}, "tle": {"line1": "1 30047U 99025NY  25361.37752676  .00001187  00000+0  87122-3 0  9998", "line2": "2 30047  99.9199 159.4496 0125825 283.7865 106.3965 13.94382277961206"}}, "geometry": {"type": "Point", "coordinates": [-15.491248391343852, 23.748996119225946]}}]}